QIANFAN-81              
1 63167U 25046J   26016.59476339  .00000160  00000+0  22887-3 0  9997
2 63167  88.9793 316.2697 0016109  25.6932 334.5017 13.51016357 52199
QIANFAN-82              
1 63168U 25046K   26016.55545279  .00000158  00000+0  22525-3 0  9990
2 63168  88.9793 316.3178 0014427  33.5748 326.6315 13.50989274 52176
QIANFAN-83              
1 63169U 25046L   26016.59547716  .00000184  00000+0  22328-3 0  9993
2 63169  88.9794 316.0217 0015287  18.1128 342.0571 13.61991480 52344
QIANFAN-84              
1 63170U 25046M   26016.58298791  .00000144  00000+0  20491-3 0  9995
2 63170  88.9793 316.4475 0017302  29.3455 330.8664 13.50999011 52100
QIANFAN-85              
1 63171U 25046N   26016.58000698  .00000136  00000+0  19186-3 0  9993
2 63171  88.9793 316.3195 0014765  32.2820 327.9231 13.50988103 52172
QIANFAN-86              
1 63172U 25046P   26016.58833129  .00000155  00000+0  22107-3 0  9995
2 63172  88.9795 316.1816 0012735  36.9214 323.2811 13.50989993 52256
QIANFAN-87              
1 63173U 25046Q   26016.55971796  .00000155  00000+0  22175-3 0  9991
2 63173  88.9791 316.2949 0013281  32.6094 327.5874 13.50987622 52182
QIANFAN-88              
1 63174U 25046R   26016.57588595  .00000148  00000+0  20966-3 0  9993
2 63174  88.9794 316.2486 0013837  39.4001 320.8154 13.50993837 52218
